[{"OBJECT_NAME":"ONEWEB-0279","OBJECT_ID":"2021-060AG","EPOCH":"2026-03-09T20:52:25.254336","MEAN_MOTION":13.16593533,"ECCENTRICITY":0.00016502,"INCLINATION":87.9006,"RA_OF_ASC_NODE":248.5254,"ARG_OF_PERICENTER":105.4978,"MEAN_ANOMALY":254.6335,"EPHEMERIS_TYPE":0,"CLASSIFICATION_TYPE":"U","NORAD_CAT_ID":48997,"ELEMENT_SET_NO":999,"REV_AT_EPOCH":22655,"BSTAR":0.00020794106,"MEAN_MOTION_DOT":9.2e-7,"MEAN_MOTION_DDOT":0},{"OBJECT_NAME":"FENGYUN 1C DEB","OBJECT_ID":"1999-025ELB","EPOCH":"2026-02-28T06:49:05.156544","MEAN_MOTION":13.35440171,"ECCENTRICITY":0.03941094,"INCLINATION":99.021,"RA_OF_ASC_NODE":73.8691,"ARG_OF_PERICENTER":209.8027,"MEAN_ANOMALY":217.438,"EPHEMERIS_TYPE":0,"CLASSIFICATION_TYPE":"U","NORAD_CAT_ID":37686,"ELEMENT_SET_NO":999,"REV_AT_EPOCH":61662,"BSTAR":0.00047060223,"MEAN_MOTION_DOT":3.34e-6,"MEAN_MOTION_DDOT":0}]
